YAOGAN-47               
1 66988U 25289A   26007.94984419  .00003621  00000+0  15441-3 0  9995
2 66988  97.5224  78.1345 0001285 121.9306 238.2056 15.23579917  4531
CZ-4B R/B               
1 66989U 25289B   26007.76838730  .00133952  77438-5  54164-3 0  9991
2 66989  97.5189  80.1072 0128563 264.1064  94.5534 15.74580722  4651
TJS-22                  
1 66990U 25290A   26007.31198988 -.00000004  00000+0  00000+0 0  9993
2 66990   1.9248 285.0648 0003320 348.1228  12.4592  1.00271808   410
CZ-3B R/B               
1 66991U 25290B   25349.72468800  .00057911 -20514-6  75879-3 0  9998
2 66991  28.4636 300.4666 7240884 182.7002 168.6250  2.38388611   165
2025-292A               
1 66993U 25292A   26007.80996108  .00004555  00000+0  32648-3 0  9993
2 66993  97.6495  85.1055 0015474 179.0938 181.0319 15.04779071  4319
THE ARAB SATELLITE 813  
1 66994U 25292B   26007.80896446  .00005131  00000+0  36647-3 0  9992
2 66994  97.6505  85.1100 0015269 179.4288 180.6959 15.04851747  4313
2025-292C               
1 66995U 25292C   26007.80961012  .00005577  00000+0  39875-3 0  9995
2 66995  97.6495  85.1059 0015462 177.7122 182.4178 15.04771460  4314
2025-292D               
1 66996U 25292D   26007.80855008  .00004002  00000+0  28716-3 0  9997
2 66996  97.6491  85.1057 0014627 181.2528 178.8664 15.04813766  4316
2025-292E               
1 66997U 25292E   26007.80646984  .00004510  00000+0  32174-3 0  9996
2 66997  97.6512  85.1160 0014962 182.5310 177.5843 15.04962209  4302
2025-292F               
1 66998U 25292F   26007.80295178  .00005440  00000+0  38462-3 0  9991
2 66998  97.6530  85.1277 0016107 183.2194 176.8932 15.05194883  4311
2025-292G               
1 66999U 25292G   26007.80173157  .00005456  00000+0  38514-3 0  9999
2 66999  97.6539  85.1325 0015572 184.8678 175.2399 15.05259852  4312
2025-292H               
1 67000U 25292H   26007.80110116  .00006354  00000+0  44684-3 0  9992
2 67000  97.6552  85.1380 0015436 184.9178 175.1899 15.05341140  4188
2025-292J               
1 67001U 25292J   26007.74633117  .00005898  00000+0  42238-3 0  9992
2 67001  97.6528  85.0478 0015855 176.5150 183.6190 15.04683059  4300
ZK-1A R/B               
1 67002U 25292K   26007.71964853  .00166772  10034-4  68246-3 0  9993
2 67002  97.7163  87.7386 0189851 269.7027  88.2476 15.63715448  4445
STARLINK-35660          
1 67003U 25293A   26007.66668980  .00068277  00000+0  11045-2 0  9993
2 67003  69.9998 250.4797 0003213 267.1120  75.5545 15.52482144  4315
STARLINK-35913          
1 67004U 25293B   26007.83335648  .00022388  00000+0  36587-3 0  9997
2 67004  70.0002 250.0203 0003411 271.9721 283.8502 15.52498150  4347
STARLINK-36148          
1 67005U 25293C   26007.73388968  .00072744  00000+0  12386-2 0  9991
2 67005  70.0027 250.2956 0008773 120.3695 239.8360 15.50990818  5705
STARLINK-36156          
1 67006U 25293D   26007.73286910  .00060840  00000+0  98360-3 0  9997
2 67006  69.9993 250.2900 0003637 271.3094  88.7676 15.52531981  5703
STARLINK-36123          
1 67007U 25293E   26007.73321191  .00110423  00000+0  17704-2 0  9994
2 67007  69.9999 250.2901 0002858 266.1760  93.9100 15.52557054  5706
STARLINK-36163          
1 67008U 25293F   26007.73213698  .01074380  00000+0  14631-1 0  9994
2 67008  70.0012 250.2857 0018407 193.6062 166.4633 15.54592024  5707
STARLINK-36118          
1 67009U 25293G   26007.73180557  .01190615  00000+0  16365-1 0  9998
2 67009  69.9965 250.2840 0013634 233.3385 126.6551 15.54555237  5703
STARLINK-36189          
1 67010U 25293H   26007.73114876  .00284782  00000+0  40378-2 0  9991
2 67010  69.9997 250.2826 0015079 220.7702 139.2359 15.55210718  5701
STARLINK-36167          
1 67011U 25293J   26007.73146248  .01101755  00000+0  14953-1 0  9998
2 67011  69.9991 250.2832 0017080 190.5414 169.5419 15.54638064  5701
STARLINK-36175          
1 67012U 25293K   26007.73077372  .01477713  00000+0  19983-1 0  9998
2 67012  69.9999 250.2798 0013405 222.8820 137.1323 15.54399792  5705
STARLINK-35856          
1 67013U 25293L   26007.73044373  .00209298  00000+0  29555-2 0  9991
2 67013  69.9994 250.2792 0027638 177.5140 182.6191 15.55270124  5705
STARLINK-36207          
1 67014U 25293M   26007.73009200  .01142954  00000+0  15507-1 0  9999
2 67014  70.0000 250.2777 0017400 195.0693 164.9979 15.54541315  5703
STARLINK-36093          
1 67015U 25293N   26007.72944674  .00195381  00000+0  29271-2 0  9997
2 67015  69.9991 250.2798 0015477 286.7704  73.1785 15.54001366  5709
STARLINK-36120          
1 67016U 25293P   26007.72979032  .00147870  00000+0  22174-2 0  9999
2 67016  69.9996 250.2778 0015865 288.1978  71.7483 15.54136726  5701
STARLINK-35498          
1 67017U 25293Q   26007.72909510  .00079211  00000+0  12750-2 0  9996
2 67017  69.9989 250.2741 0003295 259.5090 100.5726 15.52574291  5707
STARLINK-36106          
1 67018U 25293R   26007.40694293  .00097470  00000+0  15641-2 0  9990
2 67018  69.9994 251.1581 0003691 274.2724  85.8041 15.52582895  5652
STARLINK-35688          
1 67019U 25293S   26007.72875250  .00100406  00000+0  16125-2 0  9992
2 67019  70.0001 250.2723 0003507 265.7411  94.3376 15.52548635  5703
STARLINK-36172          
1 67020U 25293T   26007.72840939  .00081931  00000+0  13193-2 0  9993
2 67020  69.9997 250.2717 0003307 267.9239  92.1569 15.52550605  5697
STARLINK-36184          
1 67021U 25293U   26007.79249601  .00090342  00000+0  14528-2 0  9999
2 67021  69.9997 250.0947 0003707 265.8006  94.2757 15.52552410  5715
STARLINK-36209          
1 67022U 25293V   26007.72737983  .00439265  00000+0  63761-2 0  9992
2 67022  70.0024 250.2677 0012033 271.6703  88.3107 15.54076694  5702
STARLINK-36191          
1 67023U 25293W   26007.72705013  .00251600  00000+0  37403-2 0  9991
2 67023  70.0001 250.2668 0014335 286.7810  73.1805 15.54037936  5704
STARLINK-36192          
1 67024U 25293X   26007.21160193  .00069941  00000+0  11289-2 0  9999
2 67024  69.9997 251.6788 0003815 268.3655  91.7095 15.52534323  5626
STARLINK-36178          
1 67025U 25293Y   26007.83335648  .00022507  00000+0  36781-3 0  9999
2 67025  70.0001 249.9716 0003424 269.9162 326.1542 15.52496849  4400
STARLINK-36176          
1 67026U 25293Z   26007.78987546  .04356230  00000+0  52367-1 0  9997
2 67026  70.0010 250.0869 0024800 247.7755 112.0804 15.56520300  5707
STARLINK-36171          
1 67027U 25293AA  26007.83335648  .00028473  00000+0  46433-3 0  9994
2 67027  70.0000 249.9686 0003440 269.5140 328.4793 15.52491470  4405
STARLINK-36132          
1 67028U 25293AB  26007.40317413  .00078176  00000+0  12598-2 0  9997
2 67028  70.0009 251.1418 0002635 273.3780  86.7105 15.52548149  5656
STARLINK-36190          
1 67029U 25293AC  26007.78979260 -.00681302  00000+0 -11738-1 0  9990
2 67029  69.9996 250.0835 0008500 307.2111  52.8300 15.53183767  5712
STARLINK-36138          
1 67030U 25294A   26007.83335648  .00032753  00000+0  78838-3 0  9999
2 67030  43.0009  26.2169 0001203 269.7426 340.1902 15.40684029  4284
STARLINK-36150          
1 67031U 25294B   26007.73249689  .00034994  00000+0  84064-3 0  9995
2 67031  43.0070  26.9219 0000992 196.4921 163.5903 15.40718166  5421
STARLINK-36131          
1 67032U 25294C   26007.73921435  .00065438  00000+0  15592-2 0  9998
2 67032  43.0024  26.9712 0001105 251.4269 108.6467 15.40723188  5428
STARLINK-36137          
1 67033U 25294D   26007.34799921  .00039480  00000+0  94666-3 0  9997
2 67033  43.0031  29.1916 0001966 270.8673  89.1958 15.40725262  5363
STARLINK-36140          
1 67034U 25294E   26007.27645803  .00062433  00000+0  14887-2 0  9999
2 67034  43.0003  29.5148 0000808 226.4115 133.6674 15.40718772  5353
STARLINK-36085          
1 67035U 25294F   26007.83335648  .00030560  00000+0  73695-3 0  9994
2 67035  43.0007  25.8836 0001171 281.7792 105.0447 15.40657859  4280
STARLINK-36125          
1 67036U 25294G   26006.53439792  .00104892  00000+0  17649-2 0  9992
2 67036  43.0046  33.4029 0004166 266.5577  93.4806 15.50651953  5248
STARLINK-35732          
1 67037U 25294H   26005.50306972  .00088858  00000+0  14988-2 0  9998
2 67037  43.0033  39.4233 0003043 272.5981  87.4531 15.50661262  5081
STARLINK-35775          
1 67038U 25294J   26007.83335648  .00046650  00000+0  11168-2 0  9990
2 67038  43.0008  26.0347 0002157 250.0136  74.4566 15.40709289  4398
STARLINK-35705          
1 67039U 25294K   26007.75657398  .00086877  00000+0  14676-2 0  9993
2 67039  43.0015  26.2303 0001650 273.8377  86.2295 15.50630768  5430
STARLINK-35786          
1 67040U 25294L   26007.53128466  .00037423  00000+0  89768-3 0  9998
2 67040  43.0019  27.9868 0001470 249.6186 110.4513 15.40735389  5391
STARLINK-35765          
1 67041U 25294M   26007.75664241 -.00135483  00000+0 -24835-2 0  9999
2 67041  42.9991  26.2302 0002762   3.1979 356.8898 15.48941579  5437
STARLINK-35773          
1 67042U 25294N   26007.83335648  .00027524  00000+0  66404-3 0  9998
2 67042  43.0008  26.1549 0001076 263.8872  10.9137 15.40688759  4483
STARLINK-35901          
1 67043U 25294P   26007.83335648  .00026469  00000+0  63900-3 0  9994
2 67043  43.0006  25.9429 0001243 277.5638  84.3302 15.40686015  4486
STARLINK-35884          
1 67044U 25294Q   26007.54024546  .00036712  00000+0  88080-3 0  9993
2 67044  43.0024  28.0540 0000924 257.2739 102.8014 15.40737277  5391
STARLINK-35891          
1 67045U 25294R   26007.83335648  .00034536  00000+0  83134-3 0  9991
2 67045  43.0008  25.8516 0000995 269.6054 129.6483 15.40661908  4390
STARLINK-35721          
1 67046U 25294S   26007.83335648 -.01853865  00000+0 -44972-1 0  9994
2 67046  43.0009  25.8003 0001891 262.6514 158.2571 15.43470951  4488
STARLINK-35779          
1 67047U 25294T   26007.83335648  .00029906  00000+0  72080-3 0  9996
2 67047  43.0010  26.1240 0001174 271.3908  15.8602 15.40682256  4287
